[Satellite]
VERSION=1.1
NAME=STARLINK-5050
NICKNAME=STARLINK-5050
TLE1=1 53890U 22119E   22296.91667824 -.00050073  00000+0 -35399-3 0  9992
TLE2=2 53890  53.2193 108.2073 0002377  16.2293 102.9600 15.73227653  1306
STATUS=0
